[{"OBJECT_NAME":"STARLINK-30854","OBJECT_ID":"2023-171Q","EPOCH":"2026-03-09T22:53:09.229920","MEAN_MOTION":15.27137431,"ECCENTRICITY":0.00023812,"INCLINATION":42.9977,"RA_OF_ASC_NODE":283.8391,"ARG_OF_PERICENTER":39.8536,"MEAN_ANOMALY":320.249,"EPHEMERIS_TYPE":0,"CLASSIFICATION_TYPE":"U","NORAD_CAT_ID":58244,"ELEMENT_SET_NO":999,"REV_AT_EPOCH":12977,"BSTAR":0.00293725,"MEAN_MOTION_DOT":0.0008036,"MEAN_MOTION_DDOT":0},{"OBJECT_NAME":"COSMOS 1758","OBJECT_ID":"1986-046A","EPOCH":"2026-03-09T22:23:33.220896","MEAN_MOTION":15.25706639,"ECCENTRICITY":0.00131526,"INCLINATION":82.4607,"RA_OF_ASC_NODE":143.3203,"ARG_OF_PERICENTER":337.3781,"MEAN_ANOMALY":22.6875,"EPHEMERIS_TYPE":0,"CLASSIFICATION_TYPE":"U","NORAD_CAT_ID":16791,"ELEMENT_SET_NO":999,"REV_AT_EPOCH":16610,"BSTAR":0.00027304427,"MEAN_MOTION_DOT":7.006e-5,"MEAN_MOTION_DDOT":0}]
